NORAD_CAT_ID,OBJECT_NAME,OBJECT_TYPE,EPOCH,MEAN_MOTION,ECCENTRICITY,INCLINATION,RA_OF_ASC_NODE,ARG_OF_PERICENTER,MEAN_ANOMALY,BSTAR,MEAN_MOTION_DOT,MEAN_MOTION_DDOT,TLE_LINE0,TLE_LINE1,TLE_LINE2,SEMIMAJOR_AXIS,PERIOD,APOGEE,PERIGEE,DECAYED
51717.0,STARLINK-3445,PAYLOAD,2022-09-03 08:00:01,15.08844383,0.0001617,53.2163,330.3472,52.5014,281.5981,-0.0010404,-0.0001681,0.0,0 STARLINK-3445,1 51717U 22016D   22246.33334491 -.00016810  00000-0 -10404-2 0  9997,2 51717  53.2163 330.3472 0001617  52.5014 281.5981 15.08844383 30817,6917.8669999999975,95.437,540.851,538.613,0.0
51717.0,STARLINK-3445,PAYLOAD,2022-09-03 14:00:01,15.08822487,0.0001786999999999,53.2161,329.2262,47.407,205.3918,0.0011438,0.00017954,0.0,0 STARLINK-3445,1 51717U 22016D   22246.58334491  .00017954  00000-0  11438-2 0  9990,2 51717  53.2161 329.2262 0001787  47.4070 205.3918 15.08822487  1309,6917.934,95.439,541.035,538.563,0.0
51717.0,STARLINK-3445,PAYLOAD,2022-09-03 22:00:00,15.08855895,0.0001672,53.2158,327.7286,48.7528,215.632,-0.001626,-0.00026084,0.0,0 STARLINK-3445,1 51717U 22016D   22246.91667824 -.00026084  00000-0 -16260-2 0  9990,2 51717  53.2158 327.7286 0001672  48.7528 215.6320 15.08855895  1309,6917.831999999999,95.437,540.8530000000002,538.54,0.0
51717.0,STARLINK-3445,PAYLOAD,2022-09-04 08:00:01,15.08872869,0.0001631999999999,53.2159,325.8581,52.0768,316.8156,-0.0011192,-0.00018072,0.0,0 STARLINK-3445,1 51717U 22016D   22247.33334491 -.00018072  00000-0 -11192-2 0  9995,2 51717  53.2159 325.8581 0001632  52.0768 316.8156 15.08872869 30962,6917.78,95.435,540.774,538.516,0.0
51717.0,STARLINK-3445,PAYLOAD,2022-09-04 14:00:01,15.08866256,0.0001776,53.2157,324.7368,46.6788,241.0045,-0.00076519,-0.00012454,0.0,0 STARLINK-3445,1 51717U 22016D   22247.58335648 -.00012454  00000-0 -76519-3 0  9990,2 51717  53.2157 324.7368 0001776  46.6788 241.0045 15.08866256  1306,6917.8,95.436,540.894,538.437,0.0
51717.0,STARLINK-3445,PAYLOAD,2022-09-04 20:00:01,15.08879273,0.0001718,53.2153,323.6137,45.9544,160.3798,-0.0038091,-0.00060467,0.0,0 STARLINK-3445,1 51717U 22016D   22247.83334491 -.00060467  00000-0 -38091-2 0  9992,2 51717  53.2153 323.6137 0001718  45.9544 160.3798 15.08879273  1303,6917.76,95.435,540.814,538.437,0.0
51717.0,STARLINK-3445,PAYLOAD,2022-09-05 14:00:01,15.08850539,0.0001838,53.2155,320.2476,46.3377,276.125,-0.00071336,-0.00011627,0.0,0 STARLINK-3445,1 51717U 22016D   22248.58334491 -.00011627  00000-0 -71336-3 0  9999,2 51717  53.2155 320.2476 0001838  46.3377 276.1250 15.08850539 31155,6917.848000000001,95.437,540.985,538.442,0.0
51717.0,STARLINK-3445,PAYLOAD,2022-09-05 22:00:00,15.08837448,0.000175,53.2154,318.7497,48.1934,285.8704,-0.0034762,-0.00055185,0.0,0 STARLINK-3445,1 51717U 22016D   22248.91667824 -.00055185  00000-0 -34762-2 0  9993,2 51717  53.2154 318.7497 0001750  48.1934 285.8704 15.08837448  1300,6917.888000000001,95.438,540.964,538.543,0.0
51717.0,STARLINK-3445,PAYLOAD,2022-09-06 06:00:00,15.08836502,0.0001718,53.2156,317.2531,48.508,297.0994,0.00046564,7.13e-05,0.0,0 STARLINK-3445,1 51717U 22016D   22249.25001157  .00007130  00000-0  46564-3 0  9991,2 51717  53.2156 317.2531 0001718  48.5080 297.0994 15.08836502 31258,6917.891,95.438,540.945,538.568,0.0
51717.0,STARLINK-3445,PAYLOAD,2022-09-06 14:00:01,15.08825387,0.0001881,53.2157,315.7585,41.6844,315.5136,-0.00018798,-3.277e-05,0.0,0 STARLINK-3445,1 51717U 22016D   22249.58334491 -.00003277  00000-0 -18798-3 0  9995,2 51717  53.2157 315.7585 0001881  41.6844 315.5136 15.08825387  1300,6917.925,95.438,541.091,538.489,0.0
51717.0,STARLINK-3445,PAYLOAD,2022-09-06 22:00:00,15.08820351,0.000173,53.2157,314.2606,41.973,326.8040000000001,-0.00022983,-3.942e-05,0.0,0 STARLINK-3445,1 51717U 22016D   22249.91667824 -.00003942  00000-0 -22983-3 0  9991,2 51717  53.2157 314.2606 0001730  41.9730 326.8040 15.08820351 31351,6917.94,95.439,541.002,538.609,0.0
51717.0,STARLINK-3445,PAYLOAD,2022-09-07 14:00:01,15.08811036,0.0001931,53.2158,311.2695,40.173,351.7580000000001,0.0029298,0.00046612,0.0,0 STARLINK-3445,1 51717U 22016D   22250.58334491  .00046612  00000-0  29298-2 0  9991,2 51717  53.2158 311.2695 0001931  40.1730 351.7580 15.08811036  1309,6917.969,95.439,541.17,538.498,0.0
51717.0,STARLINK-3445,PAYLOAD,2022-09-07 22:00:00,15.08842081,0.0001815,53.2159,309.7715,42.9531,0.5606,-0.0003224,-5.416e-05,0.0,0 STARLINK-3445,1 51717U 22016D   22250.91667824 -.00005416  00000-0 -32240-3 0  9998,2 51717  53.2159 309.7715 0001815  42.9531   0.5606 15.08842081 31513,6917.874,95.437,540.995,538.4830000000002,0.0
51717.0,STARLINK-3445,PAYLOAD,2022-09-08 14:00:01,15.08805909,0.0002081,53.2158,306.7804,42.6595,24.0507,0.0031460999999999,0.00050092,0.0,0 STARLINK-3445,1 51717U 22016D   22251.58334491  .00050092  00000-0  31461-2 0  9994,2 51717  53.2158 306.7804 0002081  42.6595  24.0507 15.08805909  1304,6917.985,95.44,541.289,538.41,0.0
51717.0,STARLINK-3445,PAYLOAD,2022-09-09 00:00:02,15.08819373,0.0001879,53.2157,304.908,46.3677,124.8915,0.0028631999999999,0.00045549,0.0,0 STARLINK-3445,1 51717U 22016D   22252.00002315  .00045549  00000-0  28632-2 0  9996,2 51717  53.2157 304.9080 0001879  46.3677 124.8915 15.08819373 31670,6917.943,95.439,541.1080000000002,538.509,0.0
51717.0,STARLINK-3445,PAYLOAD,2022-09-09 14:00:01,15.08804547,0.0002025,53.2155,302.2913,40.2195,61.2776,0.003281,0.00052266,0.0,0 STARLINK-3445,1 51717U 22016D   22252.58334491  .00052266  00000-0  32810-2 0  9999,2 51717  53.2155 302.2913 0002025  40.2195  61.2776 15.08804547  1309,6917.989000000001,95.44,541.255,538.453,0.0
51717.0,STARLINK-3445,PAYLOAD,2022-09-09 22:00:00,15.08825154,0.0001839,53.2154,300.7932,44.2894,68.7882,0.0012785,0.0002011,0.0,0 STARLINK-3445,1 51717U 22016D   22252.91667824  .00020110  00000-0  12785-2 0  9997,2 51717  53.2154 300.7932 0001839  44.2894  68.7882 15.08825154  1301,6917.926,95.438,541.063,538.519,0.0
51717.0,STARLINK-3445,PAYLOAD,2022-09-10 14:00:01,15.08840379,0.0002029,53.2149,297.8017,40.1864,96.0883,0.0011057999999999,0.00017355,0.0,0 STARLINK-3445,1 51717U 22016D   22253.58334491  .00017355  00000-0  11058-2 0  9991,2 51717  53.2149 297.8017 0002029  40.1864  96.0883 15.08840379 31910,6917.879,95.438,541.148,538.341,0.0
51717.0,STARLINK-3445,PAYLOAD,2022-09-10 22:00:00,15.08820044,0.0001763,53.2147,296.3037,42.8396,105.0383,0.0010948,0.00017169,0.0,0 STARLINK-3445,1 51717U 22016D   22253.91667824  .00017169  00000-0  10948-2 0  9997,2 51717  53.2147 296.3037 0001763  42.8396 105.0383 15.08820044  1300,6917.941,95.439,541.026,538.587,0.0
51717.0,STARLINK-3445,PAYLOAD,2022-09-11 14:00:01,15.08824698,0.000197,53.2141,293.3124,39.2374,131.8211,0.002715,0.00043169,0.0,0 STARLINK-3445,1 51717U 22016D   22254.58334491  .00043169  00000-0  27150-2 0  9994,2 51717  53.2141 293.3124 0001970  39.2374 131.8211 15.08824698  1300,6917.927,95.439,541.155,538.429,0.0
51717.0,STARLINK-3445,PAYLOAD,2022-09-11 22:00:00,15.08826136,0.0001733,53.214,291.8141,42.1965,140.4626,-0.00014901,-2.658e-05,0.0,0 STARLINK-3445,1 51717U 22016D   22254.91667824 -.00002658  00000-0 -14901-3 0  9991,2 51717  53.2140 291.8141 0001733  42.1965 140.4626 15.08826136 32115,6917.9230000000025,95.438,540.987,538.589,0.0
51717.0,STARLINK-3445,PAYLOAD,2022-09-12 14:00:01,15.08817292,0.0001954,53.2135,288.8227,38.0892,167.7373,0.002703,0.00042966,0.0,0 STARLINK-3445,1 51717U 22016D   22255.58334491  .00042966  00000-0  27030-2 0  9996,2 51717  53.2135 288.8227 0001954  38.0892 167.7373 15.08817292  1309,6917.95,95.439,541.1669999999998,538.4630000000002,0.0
51717.0,STARLINK-3445,PAYLOAD,2022-09-12 22:00:00,15.08822995,0.0001773,53.2136,287.3243,42.2951,175.1261,0.0025636,0.00040729,0.0,0 STARLINK-3445,1 51717U 22016D   22255.91667824  .00040729  00000-0  25636-2 0  9997,2 51717  53.2136 287.3243 0001773  42.2951 175.1261 15.08822995  1309,6917.932,95.439,541.024,538.571,0.0
51717.0,STARLINK-3445,PAYLOAD,2022-09-13 08:00:01,15.08827555,0.0001893,53.2136,285.4545,38.7385,283.1559,-0.00067592,-0.00011026,0.0,0 STARLINK-3445,1 51717U 22016D   22256.33334491 -.00011026  00000-0 -67592-3 0  9993,2 51717  53.2136 285.4545 0001893  38.7385 283.1559 15.08827555 32320,6917.918000000002,95.438,541.0930000000002,538.474,0.0
51717.0,STARLINK-3445,PAYLOAD,2022-09-13 14:00:01,15.08815996,0.0001988,53.2145,284.3264,35.6871,204.8942,0.0020776999999999,0.00032912,0.0,0 STARLINK-3445,1 51717U 22016D   22256.58334491  .00032912  00000-0  20777-2 0  9998,2 51717  53.2145 284.3264 0001988  35.6871 204.8942 15.08815996  1303,6917.954000000002,95.439,541.194,538.443,0.0
51717.0,STARLINK-3445,PAYLOAD,2022-09-13 22:00:00,15.08810314,0.0001793,53.2137,282.8341,40.69,211.4704,0.0028583,0.00045459,0.0,0 STARLINK-3445,1 51717U 22016D   22256.91667824  .00045459  00000-0  28583-2 0  9997,2 51717  53.2137 282.8341 0001793  40.6900 211.4704 15.08810314  1305,6917.971,95.439,541.077,538.596,0.0
51717.0,STARLINK-3445,PAYLOAD,2022-09-14 06:00:00,15.08851791,0.0001933,53.2138,281.339,40.8603,222.8802,-0.0012193,-0.00019648,0.0,0 STARLINK-3445,1 51717U 22016D   22257.25001157 -.00019648  00000-0 -12193-2 0  9999,2 51717  53.2138 281.3390 0001933  40.8603 222.8802 15.08851791 32462,6917.844,95.437,541.047,538.372,0.0
51717.0,STARLINK-3445,PAYLOAD,2022-09-14 14:00:01,15.08869432,0.0002044,53.2149,279.8351,36.3795,238.96400000000003,-0.0035581,-0.00056518,0.0,0 STARLINK-3445,1 51717U 22016D   22257.58334491 -.00056518  00000-0 -35581-2 0  9998,2 51717  53.2149 279.8351 0002044  36.3795 238.9640 15.08869432  1307,6917.79,95.436,541.069,538.241,0.0
51717.0,STARLINK-3445,PAYLOAD,2022-09-14 22:00:00,15.08821509,0.0001847,53.2142,278.3448,39.8761,247.0819,0.0010429999999999,0.00016342,0.0,0 STARLINK-3445,1 51717U 22016D   22257.91667824  .00016342  00000-0  10430-2 0  9999,2 51717  53.2142 278.3448 0001847  39.8761 247.0819 15.08821509  1304,6917.937,95.439,541.08,538.524,0.0
